IRIDIUM 126             
1 42809U 17039G   24151.50920061  .00000371  00000+0  12554-3 0  9999
2 42809  86.3944 306.0943 0002060  86.0066 274.1365 14.34219236362787
IRIDIUM 124             
1 42810U 17039H   24151.31935887  .00000679  00000+0  19603-3 0  9995
2 42810  86.4511 242.8891 0002193 103.7881 256.3564 14.43269522367240
IRIDIUM 128             
1 42811U 17039J   24151.56969292  .00000147  00000+0  45460-4 0  9991
2 42811  86.3960 337.5988 0001946  92.7033 267.4385 14.34215603362822
IRIDIUM 121             
1 42812U 17039K   24151.45846021  .00000171  00000+0  54077-4 0  9995
2 42812  86.3944 306.1381 0002166  93.2798 266.8646 14.34218288362659
IRIDIUM 133             
1 42955U 17061A   24151.60141032  .00000134  00000+0  40896-4 0  9998
2 42955  86.3964 337.6849 0002089  86.1039 274.0396 14.34215364347625
IRIDIUM 100             
1 42956U 17061B   24151.59506320  .00000089  00000+0  24604-4 0  9990
2 42956  86.3961 337.6233 0002077  84.6250 275.5182 14.34216860347626
IRIDIUM 122             
1 42957U 17061C   24151.56334605  .00000142  00000+0  43662-4 0  9998
2 42957  86.3961 337.6351 0002053  87.2612 272.8819 14.34215764347622
IRIDIUM 129             
1 42958U 17061D   24151.58872425  .00000139  00000+0  42710-4 0  9997
2 42958  86.3962 337.6837 0001966  84.8904 275.2516 14.34215752347642
